{
  "type": "FeatureCollection",
  "features": [
    {
      "type": "Feature",
      "properties": {
        "norad_id": 41556,
        "name": "ZIYUAN 3-2 (ZY 3-2)",
        "group": "resource",
        "lat": -14.231651149228586,
        "lon": 60.57572890875166,
        "alt_km": 505.8627498465512,
        "timestamp": "2025-12-10T11:33:53.048669+00:00",
        "meta_object_name": "ZIYUAN 3-2 (ZY 3-2)",
        "meta_object_id": "2016-033A",
        "meta_epoch": "2025-12-10T05:18:49.899168",
        "meta_mean_motion": 15.21443138,
        "meta_eccentricity": 0.0012427,
        "meta_inclination": 97.4041,
        "meta_ra_of_asc_node": 58.4295,
        "meta_arg_of_pericenter": 258.9232,
        "meta_mean_anomaly": 101.0607,
        "meta_ephemeris_type": 0,
        "meta_classification_type": "U",
        "meta_norad_cat_id": 41556,
        "meta_element_set_no": 999,
        "meta_rev_at_epoch": 52925,
        "meta_bstar": 0.00049278,
        "meta_mean_motion_dot": 0.0001103,
        "meta_mean_motion_ddot": 0,
        "tle_line1": "1 41556U 16033A   25344.22141087  .00011030  00000+0  49278-3 0  9994",
        "tle_line2": "2 41556  97.4041  58.4295 0012427 258.9232 101.0607 15.21443138529258"
      },
      "geometry": {
        "type": "Point",
        "coordinates": [
          60.57572890875166,
          -14.231651149228586
        ]
      }
    },
    {
      "type": "Feature",
      "properties": {
        "norad_id": 41599,
        "name": "CARTOSAT-2C",
        "group": "resource",
        "lat": -52.16639576625627,
        "lon": 51.49034100891754,
        "alt_km": 519.3159036587194,
        "timestamp": "2025-12-10T11:33:53.048679+00:00",
        "meta_object_name": "CARTOSAT-2C",
        "meta_object_id": "2016-040A",
        "meta_epoch": "2025-12-10T03:53:35.503008",
        "meta_mean_motion": 15.19251394,
        "meta_eccentricity": 0.0010876,
        "meta_inclination": 97.4766,
        "meta_ra_of_asc_node": 41.4383,
        "meta_arg_of_pericenter": 72.6943,
        "meta_mean_anomaly": 287.548,
        "meta_ephemeris_type": 0,
        "meta_classification_type": "U",
        "meta_norad_cat_id": 41599,
        "meta_element_set_no": 999,
        "meta_rev_at_epoch": 52501,
        "meta_bstar": 0.00022305,
        "meta_mean_motion_dot": 4.639e-05,
        "meta_mean_motion_ddot": 0,
        "tle_line1": "1 41599U 16040A   25344.16221647  .00004639  00000+0  22305-3 0  9992",
        "tle_line2": "2 41599  97.4766  41.4383 0010876  72.6943 287.5480 15.19251394525012"
      },
      "geometry": {
        "type": "Point",
        "coordinates": [
          51.49034100891754,
          -52.16639576625627
        ]
      }
    },
    {
      "type": "Feature",
      "properties": {
        "norad_id": 41601,
        "name": "SKYSAT-C1",
        "group": "resource",
        "lat": -73.38967295600189,
        "lon": 177.3644861269629,
        "alt_km": 476.741442435482,
        "timestamp": "2025-12-10T11:33:53.048690+00:00",
        "meta_object_name": "SKYSAT-C1",
        "meta_object_id": "2016-040C",
        "meta_epoch": "2025-12-10T01:03:12.196224",
        "meta_mean_motion": 15.32510525,
        "meta_eccentricity": 0.000268,
        "meta_inclination": 96.9824,
        "meta_ra_of_asc_node": 21.2092,
        "meta_arg_of_pericenter": 23.5908,
        "meta_mean_anomaly": 336.5457,
        "meta_ephemeris_type": 0,
        "meta_classification_type": "U",
        "meta_norad_cat_id": 41601,
        "meta_element_set_no": 999,
        "meta_rev_at_epoch": 52886,
        "meta_bstar": 0.00041563,
        "meta_mean_motion_dot": 0.00012984,
        "meta_mean_motion_ddot": 0,
        "tle_line1": "1 41601U 16040C   25344.04389116  .00012984  00000+0  41563-3 0  9998",
        "tle_line2": "2 41601  96.9824  21.2092 0002680  23.5908 336.5457 15.32510525528862"
      },
      "geometry": {
        "type": "Point",
        "coordinates": [
          177.3644861269629,
          -73.38967295600189
        ]
      }
    },
    {
      "type": "Feature",
      "properties": {
        "norad_id": 41603,
        "name": "LAPAN-A3",
        "group": "resource",
        "lat": 46.433616832805754,
        "lon": -25.456588963582675,
        "alt_km": 464.3194399024451,
        "timestamp": "2025-12-10T11:33:53.048700+00:00",
        "meta_object_name": "LAPAN-A3",
        "meta_object_id": "2016-040E",
        "meta_epoch": "2025-12-10T05:05:18.838176",
        "meta_mean_motion": 15.31518342,
        "meta_eccentricity": 0.0009942,
        "meta_inclination": 97.1433,
        "meta_ra_of_asc_node": 341.8599,
        "meta_arg_of_pericenter": 343.669,
        "meta_mean_anomaly": 16.423,
        "meta_ephemeris_type": 0,
        "meta_classification_type": "U",
        "meta_norad_cat_id": 41603,
        "meta_element_set_no": 999,
        "meta_rev_at_epoch": 52587,
        "meta_bstar": 0.00018168,
        "meta_mean_motion_dot": 5.463e-05,
        "meta_mean_motion_ddot": 0,
        "tle_line1": "1 41603U 16040E   25344.21202359  .00005463  00000+0  18168-3 0  9991",
        "tle_line2": "2 41603  97.1433 341.8599 0009942 343.6690  16.4230 15.31518342525873"
      },
      "geometry": {
        "type": "Point",
        "coordinates": [
          -25.456588963582675,
          46.433616832805754
        ]
      }
    },
    {
      "type": "Feature",
      "properties": {
        "norad_id": 41604,
        "name": "BIROS",
        "group": "resource",
        "lat": 57.50310571595138,
        "lon": -152.93912920719202,
        "alt_km": 298.7476152819845,
        "timestamp": "2025-12-10T11:33:53.048710+00:00",
        "meta_object_name": "BIROS",
        "meta_object_id": "2016-040F",
        "meta_epoch": "2025-12-10T01:58:59.670048",
        "meta_mean_motion": 15.88522659,
        "meta_eccentricity": 0.0003168,
        "meta_inclination": 97.0703,
        "meta_ra_of_asc_node": 15.4098,
        "meta_arg_of_pericenter": 156.5515,
        "meta_mean_anomaly": 203.5903,
        "meta_ephemeris_type": 0,
        "meta_classification_type": "U",
        "meta_norad_cat_id": 41604,
        "meta_element_set_no": 999,
        "meta_rev_at_epoch": 52830,
        "meta_bstar": 0.00072042,
        "meta_mean_motion_dot": 0.00203476,
        "meta_mean_motion_ddot": 0,
        "tle_line1": "1 41604U 16040F   25344.08263507  .00203476  00000+0  72042-3 0  9994",
        "tle_line2": "2 41604  97.0703  15.4098 0003168 156.5515 203.5903 15.88522659528307"
      },
      "geometry": {
        "type": "Point",
        "coordinates": [
          -152.93912920719202,
          57.50310571595138
        ]
      }
    },
    {
      "type": "Feature",
      "properties": {
        "norad_id": 41727,
        "name": "GAOFEN-3",
        "group": "resource",
        "lat": -8.973040528712959,
        "lon": 168.76473266243082,
        "alt_km": 755.860946785625,
        "timestamp": "2025-12-10T11:33:53.048720+00:00",
        "meta_object_name": "GAOFEN-3",
        "meta_object_id": "2016-049A",
        "meta_epoch": "2025-12-10T04:01:52.230432",
        "meta_mean_motion": 14.42212515,
        "meta_eccentricity": 0.0001499,
        "meta_inclination": 98.4038,
        "meta_ra_of_asc_node": 349.7932,
        "meta_arg_of_pericenter": 64.6229,
        "meta_mean_anomaly": 295.5115,
        "meta_ephemeris_type": 0,
        "meta_classification_type": "U",
        "meta_norad_cat_id": 41727,
        "meta_element_set_no": 999,
        "meta_rev_at_epoch": 49140,
        "meta_bstar": 5.4691e-05,
        "meta_mean_motion_dot": 1.37e-06,
        "meta_mean_motion_ddot": 0,
        "tle_line1": "1 41727U 16049A   25344.16796563  .00000137  00000+0  54691-4 0  9991",
        "tle_line2": "2 41727  98.4038 349.7932 0001499  64.6229 295.5115 14.42212515491407"
      },
      "geometry": {
        "type": "Point",
        "coordinates": [
          168.76473266243082,
          -8.973040528712959
        ]
      }
    },
    {
      "type": "Feature",
      "properties": {
        "norad_id": 41771,
        "name": "SKYSAT-C4",
        "group": "resource",
        "lat": 67.07889100721249,
        "lon": -153.48495655227364,
        "alt_km": 432.5003453970212,
        "timestamp": "2025-12-10T11:33:53.048730+00:00",
        "meta_object_name": "SKYSAT-C4",
        "meta_object_id": "2016-058B",
        "meta_epoch": "2025-12-10T01:44:15.225216",
        "meta_mean_motion": 15.42126604,
        "meta_eccentricity": 0.0001244,
        "meta_inclination": 96.9376,
        "meta_ra_of_asc_node": 9.3894,
        "meta_arg_of_pericenter": 134.424,
        "meta_mean_anomaly": 225.711,
        "meta_ephemeris_type": 0,
        "meta_classification_type": "U",
        "meta_norad_cat_id": 41771,
        "meta_element_set_no": 999,
        "meta_rev_at_epoch": 51626,
        "meta_bstar": 0.00046822,
        "meta_mean_motion_dot": 0.00019988,
        "meta_mean_motion_ddot": 0,
        "tle_line1": "1 41771U 16058B   25344.07239844  .00019988  00000+0  46822-3 0  9994",
        "tle_line2": "2 41771  96.9376   9.3894 0001244 134.4240 225.7110 15.42126604516263"
      },
      "geometry": {
        "type": "Point",
        "coordinates": [
          -153.48495655227364,
          67.07889100721249
        ]
      }
    }
  ]
}